NORAD_CAT_ID,OBJECT_NAME,OBJECT_TYPE,EPOCH,MEAN_MOTION,ECCENTRICITY,INCLINATION,RA_OF_ASC_NODE,ARG_OF_PERICENTER,MEAN_ANOMALY,BSTAR,MEAN_MOTION_DOT,MEAN_MOTION_DDOT,TLE_LINE0,TLE_LINE1,TLE_LINE2,SEMIMAJOR_AXIS,PERIOD,APOGEE,PERIGEE,DECAYED
52599.0,STARLINK-4024,PAYLOAD,2023-09-26 12:19:05,15.08841431,0.0001576,53.2171,337.8302,92.8872,267.23,0.002275,0.00036106,0.0,0 STARLINK-4024,1 52599U 22052B   23269.51325622  .00036106  00000-0  22750-2 0  9993,2 52599  53.2171 337.8302 0001576  92.8872 267.2300 15.08841431 76088,6917.876,95.437,540.831,538.651,0.0
52599.0,STARLINK-4024,PAYLOAD,2023-09-27 08:59:05,15.08854144,0.0001697,53.2175,333.9646,92.8425,267.2762,0.00070148,0.00010898,0.0,0 STARLINK-4024,1 52599U 22052B   23270.37437354  .00010898  00000-0  70148-3 0  9990,2 52599  53.2175 333.9646 0001697  92.8425 267.2762 15.08854144 76210,6917.837,95.437,540.876,538.528,0.0
52599.0,STARLINK-4024,PAYLOAD,2023-09-27 12:09:51,15.08857545,0.0001598,53.2168,333.3694,97.2037,262.9136,0.00071555,0.00011124,0.0,0 STARLINK-4024,1 52599U 22052B   23270.50685130  .00011124  00000-0  71555-3 0  9998,2 52599  53.2168 333.3694 0001598  97.2037 262.9136 15.08857545 76661,6917.827,95.436,540.797,538.586,0.0
52599.0,STARLINK-4024,PAYLOAD,2023-09-27 23:17:33,15.08845217,0.000155,53.2176,331.2885,95.2325,264.8844,0.00013949,1.933e-05,0.0,0 STARLINK-4024,1 52599U 22052B   23270.97053233  .00001933  00000-0  13949-3 0  9992,2 52599  53.2176 331.2885 0001550  95.2325 264.8844 15.08845217 76306,6917.864,95.437,540.802,538.657,0.0
52599.0,STARLINK-4024,PAYLOAD,2023-09-28 10:25:16,15.08832644,0.0001595,53.2167,329.2057,98.4312,261.6861,-0.00012853,-2.333e-05,0.0,0 STARLINK-4024,1 52599U 22052B   23271.43421694 -.00002333  00000-0 -12853-3 0  9994,2 52599  53.2167 329.2057 0001595  98.4312 261.6861 15.08832644 76375,6917.903,95.438,540.871,538.664,0.0
52599.0,STARLINK-4024,PAYLOAD,2023-09-29 10:16:03,15.08848353,0.0001502,53.2166,324.7449,89.3923,270.7241,0.00036651,5.551e-05,0.0,0 STARLINK-4024,1 52599U 22052B   23272.42781597  .00005551  00000-0  36651-3 0  9990,2 52599  53.2166 324.7449 0001502  89.3923 270.7241 15.08848353 76528,6917.855,95.437,540.759,538.681,0.0
52599.0,STARLINK-4024,PAYLOAD,2023-09-29 13:26:49,15.08852152,0.0001458,53.2162,324.1486,93.7212,266.3947,0.00046336,7.097e-05,0.0,0 STARLINK-4024,1 52599U 22052B   23272.56029424  .00007097  00000-0  46336-3 0  9997,2 52599  53.2162 324.1486 0001458  93.7212 266.3947 15.08852152 76974,6917.843,95.437,540.717,538.7,0.0
52599.0,STARLINK-4024,PAYLOAD,2023-09-29 15:02:12,15.08856508,0.0001462,53.2165,323.8518,97.1284,262.9875,0.00055455,8.553e-05,0.0,0 STARLINK-4024,1 52599U 22052B   23272.62653238  .00008553  00000-0  55455-3 0  9990,2 52599  53.2165 323.8518 0001462  97.1284 262.9875 15.08856508 76983,6917.83,95.437,540.706,538.684,0.0
52599.0,STARLINK-4024,PAYLOAD,2023-10-01 03:36:04,15.08847051,0.0001706,53.2169,317.0196,94.3261,265.7926,-2.6137e-05,-7.04e-06,0.0,0 STARLINK-4024,1 52599U 22052B   23274.15004863 -.00000704  00000-0 -26137-4 0  9992,2 52599  53.2169 317.0196 0001706  94.3261 265.7926 15.08847051 76788,6917.859,95.437,540.904,538.544,0.0
52599.0,STARLINK-4024,PAYLOAD,2023-10-01 09:57:36,15.08847001,0.0001572,53.2174,315.8255,92.2026,267.9146,-4.3435e-05,-9.79e-06,0.0,0 STARLINK-4024,1 52599U 22052B   23274.41500719 -.00000979  00000-0 -43435-4 0  9996,2 52599  53.2174 315.8255 0001572  92.2026 267.9146 15.08847001 77259,6917.859,95.437,540.811,538.637,0.0
52599.0,STARLINK-4024,PAYLOAD,2023-10-02 01:51:28,15.08833236,0.000158,53.2178,312.8546,92.5263,267.591,-0.00010446,-1.95e-05,0.0,0 STARLINK-4024,1 52599U 22052B   23275.07741503 -.00001950  00000-0 -10446-3 0  9992,2 52599  53.2178 312.8546 0001580  92.5263 267.5910 15.08833236 76921,6917.901,95.438,540.859,538.673,0.0
52599.0,STARLINK-4024,PAYLOAD,2023-10-02 19:20:43,15.08834789,0.0001441,53.216,309.5777,79.4105,280.7049,2.2698e-05,7.3e-07,0.0,0 STARLINK-4024,1 52599U 22052B   23275.80605950  .00000073  00000-0  22698-4 0  9994,2 52599  53.2160 309.5777 0001441  79.4105 280.7049 15.08834789 77460,6917.896,95.438,540.758,538.764,0.0
52599.0,STARLINK-4024,PAYLOAD,2023-10-03 09:39:11,15.08847479,0.0001526,53.216,306.9014,87.2613,272.8554,0.00038954,5.918e-05,0.0,0 STARLINK-4024,1 52599U 22052B   23276.40221762  .00005918  00000-0  38954-3 0  9990,2 52599  53.2160 306.9014 0001526  87.2613 272.8554 15.08847479 77126,6917.858,95.437,540.778,538.667,0.0
52599.0,STARLINK-4024,PAYLOAD,2023-10-03 19:11:30,15.08840037,0.000145,53.2155,305.1119,92.6542,267.4616,0.00054698,8.428e-05,0.0,0 STARLINK-4024,1 52599U 22052B   23276.79966003  .00008428  00000-0  54698-3 0  9998,2 52599  53.2155 305.1119 0001450  92.6542 267.4616 15.08840037 77610,6917.88,95.438,540.748,538.742,0.0
52599.0,STARLINK-4024,PAYLOAD,2023-10-04 11:05:21,15.08858654,0.0001633,53.2158,302.1443,95.3054,264.8125,0.0008548,0.00013349,0.0,0 STARLINK-4024,1 52599U 22052B   23277.46205603  .00013349  00000-0  85480-3 0  9996,2 52599  53.2158 302.1443 0001633  95.3054 264.8125 15.08858654 77712,6917.823,95.436,540.818,538.559,0.0
52599.0,STARLINK-4024,PAYLOAD,2023-10-04 14:16:07,15.08858791,0.0001598,53.2151,301.5484,98.8546,261.2628,0.00090758,0.00014193,0.0,0 STARLINK-4024,1 52599U 22052B   23277.59453517  .00014193  00000-0  90758-3 0  9991,2 52599  53.2151 301.5484 0001598  98.8546 261.2628 15.08858791 77730,6917.823,95.436,540.793,538.582,0.0
52599.0,STARLINK-4024,PAYLOAD,2023-10-05 01:23:50,15.08839474,0.0001605,53.2161,299.468,88.1451,271.9725,0.00052297,8.045e-05,0.0,0 STARLINK-4024,1 52599U 22052B   23278.05822196  .00008045  00000-0  52297-3 0  9991,2 52599  53.2161 299.4680 0001605  88.1451 271.9725 15.08839474 77373,6917.882,95.438,540.857,538.637,0.0
52599.0,STARLINK-4024,PAYLOAD,2023-10-05 10:56:09,15.08855488,0.0001657,53.2158,297.6844,86.078,274.0402,0.0019663,0.00031158,0.0,0 STARLINK-4024,1 52599U 22052B   23278.45566153  .00031158  00000-0  19663-2 0  9993,2 52599  53.2158 297.6844 0001657  86.0780 274.0402 15.08855488 77863,6917.833,95.437,540.844,538.552,0.0
52599.0,STARLINK-4024,PAYLOAD,2023-10-05 18:53:04,15.08853192,0.0001714,53.2162,296.1975,85.1211,274.9977,0.0014999,0.00023672,0.0,0 STARLINK-4024,1 52599U 22052B   23278.78686321  .00023672  00000-0  14999-2 0  9998,2 52599  53.2162 296.1975 0001714  85.1211 274.9977 15.08853192 77912,6917.84,95.437,540.891,538.519,0.0
52599.0,STARLINK-4024,PAYLOAD,2023-10-06 04:25:23,15.08849633,0.0001857,53.2158,294.412,100.7772,259.3429,0.0010181,0.00015956,0.0,0 STARLINK-4024,1 52599U 22052B   23279.18430260  .00015956  00000-0  10181-2 0  9997,2 52599  53.2158 294.4120 0001857 100.7772 259.3429 15.08849633 77547,6917.851,95.437,541.001,538.431,0.0
52599.0,STARLINK-4024,PAYLOAD,2023-10-06 10:46:56,15.08854032,0.0001636,53.2167,293.2247,89.3899,270.7281,0.00072006,0.00011195,0.0,0 STARLINK-4024,1 52599U 22052B   23279.44926088  .00011195  00000-0  72006-3 0  9990,2 52599  53.2167 293.2247 0001636  89.3899 270.7281 15.08854032 78016,6917.837,95.437,540.834,538.571,0.0
52599.0,STARLINK-4024,PAYLOAD,2023-10-07 10:37:43,15.08852471,0.0001575,53.216,288.7635,96.4458,263.6714,0.0007437,0.00011572,0.0,0 STARLINK-4024,1 52599U 22052B   23280.44286149  .00011572  00000-0  74370-3 0  9994,2 52599  53.2160 288.7635 0001575  96.4458 263.6714 15.08852471 77736,6917.842,95.437,540.797,538.618,0.0
52599.0,STARLINK-4024,PAYLOAD,2023-10-08 02:31:35,15.08839867,0.0001855,53.2165,285.7904,95.2522,264.8682,0.00069925,0.00010858,0.0,0 STARLINK-4024,1 52599U 22052B   23281.10526640  .00010858  00000-0  69925-3 0  9997,2 52599  53.2165 285.7904 0001855  95.2522 264.8682 15.08839867 77839,6917.881,95.438,541.029,538.463,0.0
52599.0,STARLINK-4024,PAYLOAD,2023-10-08 10:28:30,15.08848785,0.0001717,53.2163,284.3033,93.7355,266.3833,0.0010732,0.00016837,0.0,0 STARLINK-4024,1 52599U 22052B   23281.43646643  .00016837  00000-0  10732-2 0  9993,2 52599  53.2163 284.3033 0001717  93.7355 266.3833 15.08848785 78317,6917.854,95.437,540.906,538.531,0.0
52599.0,STARLINK-4024,PAYLOAD,2023-10-08 16:50:03,15.08837171,0.0001897,53.2178,283.1141,97.0894,263.0314,0.00027043,4.018e-05,0.0,0 STARLINK-4024,1 52599U 22052B   23281.70143000  .00004018  00000-0  27043-3 0  9994,2 52599  53.2178 283.1141 0001897  97.0894 263.0314 15.08837171 78353,6917.889,95.438,541.066,538.442,0.0
52599.0,STARLINK-4024,PAYLOAD,2023-10-09 07:08:31,15.08850215,0.0001641,53.2164,280.4384,97.4224,262.6955,0.00090609,0.00014166,0.0,0 STARLINK-4024,1 52599U 22052B   23282.29758647  .00014166  00000-0  90609-3 0  9991,2 52599  53.2164 280.4384 0001641  97.4224 262.6955 15.08850215 78018,6917.849,95.437,540.849,538.579,0.0
52599.0,STARLINK-4024,PAYLOAD,2023-10-09 11:54:40,15.08860792,0.0001579,53.2163,279.5457,96.072,264.0452,0.00090806,0.00014202,0.0,0 STARLINK-4024,1 52599U 22052B   23282.49630293  .00014202  00000-0  90806-3 0  9999,2 52599  53.2163 279.5457 0001579  96.0720 264.0452 15.08860792 78472,6917.817,95.436,540.774,538.59,0.0
52599.0,STARLINK-4024,PAYLOAD,2023-10-09 16:40:50,15.08840224,0.0002279,53.217,278.6531,80.3003,279.8246,0.00012069,1.633e-05,0.0,0 STARLINK-4024,1 52599U 22052B   23282.69502994  .00001633  00000-0  12069-3 0  9996,2 52599  53.2170 278.6531 0002279  80.3003 279.8246 15.08840224 78070,6917.88,95.438,541.321,538.168,0.0
52599.0,STARLINK-4024,PAYLOAD,2023-10-10 10:10:04,15.08861694,0.0001575,53.216,275.3831,87.0424,273.0748,0.0011021,0.00017306,0.0,0 STARLINK-4024,1 52599U 22052B   23283.42366420  .00017306  00000-0  11021-2 0  9990,2 52599  53.2160 275.3831 0001575  87.0424 273.0748 15.08861694 78184,6917.814,95.436,540.769,538.59,0.0
52599.0,STARLINK-4024,PAYLOAD,2023-10-10 16:31:37,15.08839946,0.0001409,53.2156,274.1923,91.0737,269.0416,0.00062575,9.685e-05,0.0,0 STARLINK-4024,1 52599U 22052B   23283.68862928  .00009685  00000-0  62575-3 0  9994,2 52599  53.2156 274.1923 0001409  91.0737 269.0416 15.08839946 78223,6917.881,95.438,540.72,538.771,0.0
